{
  "links" : {
    "next" : "https://api.nasa.gov/neo/rest/v1/neo/browse?page=46&size=20&api_key=jqAGvNAwUIBu4fl9FSOjdm3V4F7hIglRzI6pdX9d",
    "prev" : "https://api.nasa.gov/neo/rest/v1/neo/browse?page=44&size=20&api_key=jqAGvNAwUIBu4fl9FSOjdm3V4F7hIglRzI6pdX9d",
    "self" : "https://api.nasa.gov/neo/rest/v1/neo/browse?page=45&size=20&api_key=jqAGvNAwUIBu4fl9FSOjdm3V4F7hIglRzI6pdX9d"
  },
  "page" : {
    "size" : 20,
    "total_elements" : 20750,
    "total_pages" : 1038,
    "number" : 45
  },
  "near_earth_objects" : [ {
    "links" : {
      "self" : "https://api.nasa.gov/neo/rest/v1/neo/3424289?api_key=jqAGvNAwUIBu4fl9FSOjdm3V4F7hIglRzI6pdX9d"
    },
    "neo_reference_id" : "3424289",
    "name" : "(2008 PV16)",
    "designation" : "2008 PV16",
    "nasa_jpl_url" : "http://ssd.jpl.nasa.gov/sbdb.cgi?sstr=3424289",
    "absolute_magnitude_h" : 21.3,
    "estimated_diameter" : {
      "kilometers" : {
        "estimated_diameter_min" : 0.1460679643,
        "estimated_diameter_max" : 0.3266178974
      },
      "meters" : {
        "estimated_diameter_min" : 146.0679642714,
        "estimated_diameter_max" : 326.6178974458
      },
      "miles" : {
        "estimated_diameter_min" : 0.090762397,
        "estimated_diameter_max" : 0.2029508896
      },
      "feet" : {
        "estimated_diameter_min" : 479.2256199,
        "estimated_diameter_max" : 1071.581062656
      }
    },
    "is_potentially_hazardous_asteroid" : false,
    "close_approach_data" : [ {
      "close_approach_date" : "2008-08-22",
      "epoch_date_close_approach" : 1219388400000,
      "relative_velocity" : {
        "kilometers_per_second" : "23.1923140358",
        "kilometers_per_hour" : "83492.3305288796",
        "miles_per_hour" : "51878.8872666808"
      },
      "miss_distance" : {
        "astronomical" : "0.0657877411",
        "lunar" : "25.5914306641",
        "kilometers" : "9841706",
        "miles" : "6115352.5"
      },
      "orbiting_body" : "Earth"
    } ],
    "orbital_data" : {
      "orbit_id" : "14",
      "orbit_determination_date" : "2017-04-06 09:03:05",
      "first_observation_date" : "2008-08-11",
      "last_observation_date" : "2008-08-19",
      "data_arc_in_days" : 8,
      "observations_used" : 53,
      "orbit_uncertainty" : "9",
      "minimum_orbit_intersection" : ".0657722",
      "jupiter_tisserand_invariant" : "3.592",
      "epoch_osculation" : "2454694.5",
      "eccentricity" : ".5909161563388491",
      "semi_major_axis" : "1.864521680868988",
      "inclination" : "33.90128522177738",
      "ascending_node_longitude" : "146.2486950295823",
      "orbital_period" : "929.9285546755926",
      "perihelion_distance" : ".7627456957994352",
      "perihelion_argument" : "260.2001123505798",
      "aphelion_distance" : "2.966297665938539",
      "perihelion_time" : "2454752.928584386263",
      "mean_anomaly" : "337.3807457860109",
      "mean_motion" : ".3871265143864592",
      "equinox" : "J2000",
      "orbit_class" : {
        "orbit_class_type" : "APO",
        "orbit_class_range" : "a (semi-major axis) > 1.0 AU; q (perihelion) < 1.017 AU",
        "orbit_class_description" : "Near-Earth asteroid orbits which cross the Earth’s orbit similar to that of 1862 Apollo"
      }
    },
    "is_sentry_object" : false
  }, {
    "links" : {
      "self" : "https://api.nasa.gov/neo/rest/v1/neo/3425606?api_key=jqAGvNAwUIBu4fl9FSOjdm3V4F7hIglRzI6pdX9d"
    },
    "neo_reference_id" : "3425606",
    "name" : "(2008 QA1)",
    "designation" : "2008 QA1",
    "nasa_jpl_url" : "http://ssd.jpl.nasa.gov/sbdb.cgi?sstr=3425606",
    "absolute_magnitude_h" : 22.5,
    "estimated_diameter" : {
      "kilometers" : {
        "estimated_diameter_min" : 0.0840533402,
        "estimated_diameter_max" : 0.1879489824
      },
      "meters" : {
        "estimated_diameter_min" : 84.0533402073,
        "estimated_diameter_max" : 187.9489824394
      },
      "miles" : {
        "estimated_diameter_min" : 0.0522283081,
        "estimated_diameter_max" : 0.1167860472
      },
      "feet" : {
        "estimated_diameter_min" : 275.7655606856,
        "estimated_diameter_max" : 616.6305395464
      }
    },
    "is_potentially_hazardous_asteroid" : false,
    "close_approach_data" : [ {
      "close_approach_date" : "2008-09-02",
      "epoch_date_close_approach" : 1220338800000,
      "relative_velocity" : {
        "kilometers_per_second" : "15.9883044892",
        "kilometers_per_hour" : "57557.8961612507",
        "miles_per_hour" : "35764.2383119727"
      },
      "miss_distance" : {
        "astronomical" : "0.1087568882",
        "lunar" : "42.306427002",
        "kilometers" : "16269799",
        "miles" : "10109584"
      },
      "orbiting_body" : "Earth"
    } ],
    "orbital_data" : {
      "orbit_id" : "14",
      "orbit_determination_date" : "2017-04-06 09:03:04",
      "first_observation_date" : "2008-08-23",
      "last_observation_date" : "2008-09-19",
      "data_arc_in_days" : 27,
      "observations_used" : 64,
      "orbit_uncertainty" : "8",
      "minimum_orbit_intersection" : ".108332",
      "jupiter_tisserand_invariant" : "3.347",
      "epoch_osculation" : "2454707.5",
      "eccentricity" : ".5140377983104083",
      "semi_major_axis" : "2.220055403491815",
      "inclination" : "26.44969157452634",
      "ascending_node_longitude" : "336.7445909834714",
      "orbital_period" : "1208.214785422166",
      "perihelion_distance" : "1.078863011753757",
      "perihelion_argument" : "28.21760320786736",
      "aphelion_distance" : "3.361247795229872",
      "perihelion_time" : "2454734.296977049975",
      "mean_anomaly" : "352.0155655646771",
      "mean_motion" : ".2979602669522135",
      "equinox" : "J2000",
      "orbit_class" : {
        "orbit_class_type" : "AMO",
        "orbit_class_range" : "1.017 AU < q (perihelion) < 1.3 AU",
        "orbit_class_description" : "Near-Earth asteroid orbits similar to that of 1221 Amor"
      }
    },
    "is_sentry_object" : false
  }, {
    "links" : {
      "self" : "https://api.nasa.gov/neo/rest/v1/neo/3426412?api_key=jqAGvNAwUIBu4fl9FSOjdm3V4F7hIglRzI6pdX9d"
    },
    "neo_reference_id" : "3426412",
    "name" : "(2008 QT11)",
    "designation" : "2008 QT11",
    "nasa_jpl_url" : "http://ssd.jpl.nasa.gov/sbdb.cgi?sstr=3426412",
    "absolute_magnitude_h" : 22.5,
    "estimated_diameter" : {
      "kilometers" : {
        "estimated_diameter_min" : 0.0840533402,
        "estimated_diameter_max" : 0.1879489824
      },
      "meters" : {
        "estimated_diameter_min" : 84.0533402073,
        "estimated_diameter_max" : 187.9489824394
      },
      "miles" : {
        "estimated_diameter_min" : 0.0522283081,
        "estimated_diameter_max" : 0.1167860472
      },
      "feet" : {
        "estimated_diameter_min" : 275.7655606856,
        "estimated_diameter_max" : 616.6305395464
      }
    },
    "is_potentially_hazardous_asteroid" : false,
    "close_approach_data" : [ {
      "close_approach_date" : "2008-08-15",
      "epoch_date_close_approach" : 1218783600000,
      "relative_velocity" : {
        "kilometers_per_second" : "10.2548752928",
        "kilometers_per_hour" : "36917.5510541668",
        "miles_per_hour" : "22939.1305425182"
      },
      "miss_distance" : {
        "astronomical" : "0.0366721274",
        "lunar" : "14.2654571533",
        "kilometers" : "5486072",
        "miles" : "3408887.25"
      },
      "orbiting_body" : "Earth"
    } ],
    "orbital_data" : {
      "orbit_id" : "10",
      "orbit_determination_date" : "2017-04-06 09:03:03",
      "first_observation_date" : "2008-08-27",
      "last_observation_date" : "2008-09-10",
      "data_arc_in_days" : 14,
      "observations_used" : 16,
      "orbit_uncertainty" : "8",
      "minimum_orbit_intersection" : ".0352612",
      "jupiter_tisserand_invariant" : "4.732",
      "epoch_osculation" : "2454710.5",
      "eccentricity" : ".3778402894555744",
      "semi_major_axis" : "1.373934537489678",
      "inclination" : "6.79769129296508",
      "ascending_node_longitude" : "128.5654608002042",
      "orbital_period" : "588.230430899971",
      "perihelion_distance" : ".8548067141515673",
      "perihelion_argument" : "134.1490567644893",
      "aphelion_distance" : "1.893062360827788",
      "perihelion_time" : "2454647.826026368614",
      "mean_anomaly" : "38.35678897601228",
      "mean_motion" : ".6120050597335014",
      "equinox" : "J2000",
      "orbit_class" : {
        "orbit_class_type" : "APO",
        "orbit_class_range" : "a (semi-major axis) > 1.0 AU; q (perihelion) < 1.017 AU",
        "orbit_class_description" : "Near-Earth asteroid orbits which cross the Earth’s orbit similar to that of 1862 Apollo"
      }
    },
    "is_sentry_object" : false
  } ]
}